SL-16 R/B               
1 23405U 94077B   26161.47832735 -.00000224  00000+0 -90056-4 0  9999
2 23405  70.9805 157.2769 0002682 331.7665  28.3312 14.15572510629367
ARIANE 40+ R/B          
1 23561U 95021B   26161.44376094  .00000202  00000+0  78236-4 0  9990
2 23561  98.4411 231.6159 0006003 215.1873 160.4951 14.39829599632599
SL-16 R/B               
1 23705U 95058B   26161.63113756  .00000059  00000+0  54353-4 0  9999
2 23705  71.0215 345.1238 0013469 329.3963  30.6373 14.15505333581005
SL-16 R/B               
1 24298U 96051B   26161.58676998  .00000120  00000+0  91647-4 0  9993
2 24298  70.7636 338.6181 0014899 346.9060  13.1670 14.12443714534769
ORBVIEW 2 (SEASTAR)     
1 24883U 97037A   26161.32884202  .00000210  00000+0  89087-4 0  9994
2 24883  98.8682 328.1581 0002993 130.0629 230.0819 14.35549971521762
SL-16 R/B               
1 25400U 98043G   26161.48700312  .00000031  00000+0  31805-4 0  9990
2 25400  98.8361 115.5887 0010916 103.8268 256.4126 14.26067510452210
SL-16 R/B               
1 25407U 98045B   26161.59645702 -.00000081  00000+0 -16633-4 0  9991
2 25407  71.0121 346.1906 0009510 249.8958 110.1142 14.16204977440257
ISS (ZARYA)             
1 25544U 98067A   26161.41633915  .00005345  00000+0  10452-3 0  9999
2 25544  51.6361 333.6061 0005881 172.3680 187.7399 15.49162374570700
CZ-4B R/B               
1 25732U 99025C   26161.65732150  .00000040  00000+0  39682-4 0  9994
2 25732  98.6485 203.6600 0038226  77.9126  32.3377 14.18282367401340
OKEAN-O                 
1 25860U 99039A   26161.58879385  .00000514  00000+0  74083-4 0  9995
2 25860  97.9317 220.4621 0001772  76.6016 283.5394 14.80459467448131
SL-16 R/B               
1 25861U 99039B   26161.61671386  .00000415  00000+0  59355-4 0  9996
2 25861  97.9840 220.4983 0013845 320.0735  39.9458 14.81838675450626
DELTA 2 R/B             
1 25876U 99041E   26161.52208870  .00000736  00000+0  15618-3 0  9998
2 25876  51.7662 290.4209 0500893 262.3125  92.0671 14.12003883376145
HELIOS 1B               
1 25977U 99064A   26161.45410089  .00001189  00000+0  13601-3 0  9997
2 25977  98.1621  66.3989 0002450 100.6466 259.5026 14.87988804699059
TERRA                   
1 25994U 99068A   26161.65839779  .00000315  00000+0  73135-4 0  9992
2 25994  97.9458 211.4633 0001092 217.9293 254.4366 14.61097849408650
SL-16 R/B               
1 26070U 00006B   26161.63597092 -.00000274  00000+0 -11506-3 0  9998
2 26070  71.0029 262.4000 0015184  33.2560 326.9514 14.15835737361710
TITAN 4B R/B            
1 26474U 00047B   26161.50339797  .00002716  00000+0  17044-3 0  9997
2 26474  67.9872 139.3860 0045592 293.9592  65.6787 15.10157954406926
ENVISAT                 
1 27386U 02009A   26161.66651439  .00000065  00000+0  35083-4 0  9996
2 27386  98.3831 113.1305 0001331  90.0172  88.6336 14.39063283272544
IDEFIX & ARIANE 42P R/B 
1 27422U 02021B   26161.55735193  .00000178  00000+0  84069-4 0  9992
2 27422  98.5942  99.1123 0010592 275.6837  84.3138 14.31079052257302
AQUA                    
1 27424U 02022A   26161.62000722  .00000676  00000+0  14414-3 0  9995
2 27424  98.4274 130.7718 0001370  53.1045   0.2372 14.62148132282313
CZ-4B R/B               
1 27432U 02024C   26161.60329154  .00000020  00000+0  32704-4 0  9993
2 27432  98.8702 214.4660 0051120 118.5503   2.7588 14.14563352242371
MIDORI II (ADEOS-II)    
1 27597U 02056A   26161.48790690  .00000219  00000+0  10388-3 0  9996
2 27597  98.7875 120.6909 0002227  86.0647 274.0789 14.29345960223554
H-2A R/B                
1 27601U 02056E   26161.61455054  .00000156  00000+0  69556-4 0  9991
2 27601  98.3309 118.5288 0068952 244.4367 294.5981 14.33819251227425
CZ-4B R/B               
1 28059U 03049C   26161.56115137  .00000273  00000+0  74304-4 0  9998
2 28059  98.6897 160.1440 0047176 309.2873  50.4143 14.55095769200107
CZ-2C R/B               
1 28222U 04012C   26161.18613233  .00093739  00000+0  55763-3 0  9995
2 28222  97.7090 236.0413 0008787 314.2005  45.8537 15.77651761218799
SL-16 R/B               
1 28353U 04021B   26161.09008693 -.00000260  00000+0 -11066-3 0  9995
2 28353  71.0018  38.5845 0007486 262.9856  97.0415 14.14611503135906
CZ-4B R/B               
1 28415U 04035C   26161.59494856  .00006979  00000+0  23570-3 0  9998
2 28415  97.3375 194.7429 0030691   1.9478 358.1877 15.30529409194113
CZ-2C R/B               
1 28480U 04046B   26161.60052022  .00000052  00000+0  35056-4 0  9998
2 28480  98.1950  70.7926 0138204 239.8718 118.8707 14.27025141121758
ARIANE 5 R/B            
1 28499U 04049H   26161.19214354  .00000669  00000+0  79817-4 0  9990
2 28499  98.2717 333.1753 0084913  51.8919 308.9912 14.85439408159521
CZ-2D R/B               
1 28738U 05024B   26161.58735100  .00051231  00000+0  44671-3 0  9990
2 28738  97.3494 180.6896 0004462  67.9503 292.2232 15.68839126154304
ALOS (DAICHI)           
1 28931U 06002A   26161.62425245  .00000913  00000+0  16044-3 0  9997
2 28931  98.1320 117.2122 0001701  59.8764 300.2610 14.70036965 87134
