OBJECT_NAME,OBJECT_ID,EPOCH,MEAN_MOTION,ECCENTRICITY,INCLINATION,RA_OF_ASC_NODE,ARG_OF_PERICENTER,MEAN_ANOMALY,EPHEMERIS_TYPE,CLASSIFICATION_TYPE,NORAD_CAT_ID,ELEMENT_SET_NO,REV_AT_EPOCH,BSTAR,MEAN_MOTION_DOT,MEAN_MOTION_DDOT
SL-16 R/B,1994-077B,2026-06-10T11:28:47.483040,14.15572510,.00026829,70.9805,157.2769,331.7665,28.3312,0,U,23405,999,62936,-.90056132E-4,-.224E-5,0
ARIANE 40+ R/B,1995-021B,2026-06-10T10:39:00.945216,14.39829599,.0006003,98.4411,231.6159,215.1873,160.4951,0,U,23561,999,63259,.78235549E-4,.202E-5,0
SL-16 R/B,1995-058B,2026-06-10T15:08:50.285184,14.15505333,.00134699,71.0215,345.1238,329.3963,30.6373,0,U,23705,999,58100,.54353415E-4,.59E-6,0
SL-16 R/B,1996-051B,2026-06-10T14:04:56.926272,14.12443714,.00148996,70.7636,338.6181,346.9060,13.1670,0,U,24298,999,53476,.91646552E-4,.12E-5,0
ORBVIEW 2 (SEASTAR),1997-037A,2026-06-10T07:53:31.950528,14.35549971,.00029934,98.8682,328.1581,130.0629,230.0819,0,U,24883,999,52176,.89086993E-4,.21E-5,0
SL-16 R/B,1998-043G,2026-06-10T11:41:17.069568,14.26067510,.00109162,98.8361,115.5887,103.8268,256.4126,0,U,25400,999,45221,.31805109E-4,.31E-6,0
SL-16 R/B,1998-045B,2026-06-10T14:18:53.886528,14.16204977,.00095107,71.0121,346.1906,249.8958,110.1142,0,U,25407,999,44025,-.16632608E-4,-.81E-6,0
ISS (ZARYA),1998-067A,2026-06-10T09:59:31.702560,15.49162374,.00058814,51.6361,333.6061,172.3680,187.7399,0,U,25544,999,57070,.10451669E-3,.5345E-4,0
CZ-4B R/B,1999-025C,2026-06-10T15:46:32.577600,14.18282367,.00382265,98.6485,203.6600,77.9126,32.3377,0,U,25732,999,40134,.39682359E-4,.4E-6,0
OKEAN-O,1999-039A,2026-06-10T14:07:51.788640,14.80459467,.00017725,97.9317,220.4621,76.6016,283.5394,0,U,25860,999,44813,.74082812E-4,.514E-5,0
SL-16 R/B,1999-039B,2026-06-10T14:48:04.077504,14.81838675,.00138453,97.9840,220.4983,320.0735,39.9458,0,U,25861,999,45062,.59355435E-4,.415E-5,0
DELTA 2 R/B,1999-041E,2026-06-10T12:31:48.463680,14.12003883,.05008938,51.7662,290.4209,262.3125,92.0671,0,U,25876,999,37614,.15617809E-3,.736E-5,0
HELIOS 1B,1999-064A,2026-06-10T10:53:54.316896,14.87988804,.000245,98.1621,66.3989,100.6466,259.5026,0,U,25977,999,69905,.13600775E-3,.1189E-4,0
TERRA,1999-068A,2026-06-10T15:48:05.569056,14.61097849,.00010926,97.9458,211.4633,217.9293,254.4366,0,U,25994,999,40865,.73134873E-4,.315E-5,0
SL-16 R/B,2000-006B,2026-06-10T15:15:47.887488,14.15835737,.00151843,71.0029,262.4000,33.2560,326.9514,0,U,26070,999,36171,-.11505671E-3,-.274E-5,0
TITAN 4B R/B,2000-047B,2026-06-10T12:04:53.584608,15.10157954,.00455928,67.9872,139.3860,293.9592,65.6787,0,U,26474,999,40692,.17044349E-3,.2716E-4,0
ENVISAT,2002-009A,2026-06-10T15:59:46.843296,14.39063283,.00013317,98.3831,113.1305,90.0172,88.6336,0,U,27386,999,27254,.35083203E-4,.65E-6,0
IDEFIX & ARIANE 42P R/B,2002-021B,2026-06-10T13:22:35.206752,14.31079052,.0010592,98.5942,99.1123,275.6837,84.3138,0,U,27422,999,25730,.84069426E-4,.178E-5,0
AQUA,2002-022A,2026-06-10T14:52:48.623808,14.62148132,.00013709,98.4274,130.7718,53.1045,0.2372,0,U,27424,999,28231,.14413805E-3,.676E-5,0
CZ-4B R/B,2002-024C,2026-06-10T14:28:44.389056,14.14563352,.00511208,98.8702,214.4660,118.5503,2.7588,0,U,27432,999,24237,.32704057E-4,.2E-6,0
MIDORI II (ADEOS-II),2002-056A,2026-06-10T11:42:35.156160,14.29345960,.00022273,98.7875,120.6909,86.0647,274.0789,0,U,27597,999,22355,.10387944E-3,.219E-5,0
H-2A R/B,2002-056E,2026-06-10T14:44:57.166656,14.33819251,.00689528,98.3309,118.5288,244.4367,294.5981,0,U,27601,999,22742,.69555861E-4,.156E-5,0
CZ-4B R/B,2003-049C,2026-06-10T13:28:03.478368,14.55095769,.00471762,98.6897,160.1440,309.2873,50.4143,0,U,28059,999,20010,.74304047E-4,.273E-5,0
CZ-2C R/B,2004-012C,2026-06-10T04:28:01.833312,15.77651761,.0008787,97.7090,236.0413,314.2005,45.8537,0,U,28222,999,21879,.55763E-3,.93739E-3,0
SL-16 R/B,2004-021B,2026-06-10T02:09:43.510752,14.14611503,.0007486,71.0018,38.5845,262.9856,97.0415,0,U,28353,999,13590,-.11066E-3,-.26E-5,0
CZ-4B R/B,2004-035C,2026-06-10T14:16:43.555584,15.30529409,.00306916,97.3375,194.7429,1.9478,358.1877,0,U,28415,999,19411,.23569986E-3,.6979E-4,0
CZ-2C R/B,2004-046B,2026-06-10T14:24:44.947008,14.27025141,.01382045,98.1950,70.7926,239.8718,118.8707,0,U,28480,999,12175,.35055604E-4,.52E-6,0
ARIANE 5 R/B,2004-049H,2026-06-10T04:36:41.201856,14.85439408,.0084913,98.2717,333.1753,51.8919,308.9912,0,U,28499,999,15952,.79817E-4,.669E-5,0
CZ-2D R/B,2005-024B,2026-06-10T14:05:47.126400,15.68839126,.0004462,97.3494,180.6896,67.9503,292.2232,0,U,28738,999,15430,.44670526E-3,.51231E-3,0
ALOS (DAICHI),2006-002A,2026-06-10T14:58:55.411680,14.70036965,.00017016,98.1320,117.2122,59.8764,300.2610,0,U,28931,999,8713,.16044318E-3,.913E-5,0
